{
  "type": "FeatureCollection",
  "features": [
    {
      "type": "Feature",
      "properties": {
        "norad_id": 34478,
        "name": "COSMOS 2251 DEB",
        "group": "cosmos-2251-debris",
        "lat": -71.39955955294361,
        "lon": -109.88899145856936,
        "alt_km": 528.4018588580911,
        "timestamp": "2025-12-10T07:43:55.173705+00:00",
        "meta_object_name": "COSMOS 2251 DEB",
        "meta_object_id": "1993-036TX",
        "meta_epoch": "2025-12-09T03:45:23.494752",
        "meta_mean_motion": 15.07546679,
        "meta_eccentricity": 0.00354336,
        "meta_inclination": 74.0399,
        "meta_ra_of_asc_node": 14.2543,
        "meta_arg_of_pericenter": 236.044,
        "meta_mean_anomaly": 180.3943,
        "meta_ephemeris_type": 0,
        "meta_classification_type": "U",
        "meta_norad_cat_id": 34478,
        "meta_element_set_no": 999,
        "meta_rev_at_epoch": 88919,
        "meta_bstar": 0.0034604726,
        "meta_mean_motion_dot": 0.00053718,
        "meta_mean_motion_ddot": 0,
        "tle_line1": "1 34478U 93036TX  25343.15652193  .00053718  00000+0  34605-2 0  9999",
        "tle_line2": "2 34478  74.0399  14.2543 0035433 236.0440 180.3943 15.07546679889199"
      },
      "geometry": {
        "type": "Point",
        "coordinates": [
          -109.88899145856936,
          -71.39955955294361
        ]
      }
    },
    {
      "type": "Feature",
      "properties": {
        "norad_id": 34481,
        "name": "COSMOS 2251 DEB",
        "group": "cosmos-2251-debris",
        "lat": 29.40277318395995,
        "lon": -131.43054632784416,
        "alt_km": 775.329280129974,
        "timestamp": "2025-12-10T07:43:55.173715+00:00",
        "meta_object_name": "COSMOS 2251 DEB",
        "meta_object_id": "1993-036UA",
        "meta_epoch": "2025-12-09T06:11:03.132960",
        "meta_mean_motion": 14.32530215,
        "meta_eccentricity": 0.0070831,
        "meta_inclination": 73.9805,
        "meta_ra_of_asc_node": 59.836,
        "meta_arg_of_pericenter": 234.8477,
        "meta_mean_anomaly": 187.628,
        "meta_ephemeris_type": 0,
        "meta_classification_type": "U",
        "meta_norad_cat_id": 34481,
        "meta_element_set_no": 999,
        "meta_rev_at_epoch": 87399,
        "meta_bstar": 0.0011903,
        "meta_mean_motion_dot": 3.293e-05,
        "meta_mean_motion_ddot": 0,
        "tle_line1": "1 34481U 93036UA  25343.25767515  .00003293  00000+0  11903-2 0  9998",
        "tle_line2": "2 34481  73.9805  59.8360 0070831 234.8477 187.6280 14.32530215873993"
      },
      "geometry": {
        "type": "Point",
        "coordinates": [
          -131.43054632784416,
          29.40277318395995
        ]
      }
    },
    {
      "type": "Feature",
      "properties": {
        "norad_id": 34482,
        "name": "COSMOS 2251 DEB",
        "group": "cosmos-2251-debris",
        "lat": 2.431702925820607,
        "lon": -131.02975520149812,
        "alt_km": 657.3852823884017,
        "timestamp": "2025-12-10T07:43:55.173726+00:00",
        "meta_object_name": "COSMOS 2251 DEB",
        "meta_object_id": "1993-036UB",
        "meta_epoch": "2025-12-09T02:59:15.251712",
        "meta_mean_motion": 14.6905885,
        "meta_eccentricity": 0.00453063,
        "meta_inclination": 74.0366,
        "meta_ra_of_asc_node": 230.5914,
        "meta_arg_of_pericenter": 291.2458,
        "meta_mean_anomaly": 219.3701,
        "meta_ephemeris_type": 0,
        "meta_classification_type": "U",
        "meta_norad_cat_id": 34482,
        "meta_element_set_no": 999,
        "meta_rev_at_epoch": 88134,
        "meta_bstar": 0.0022791813,
        "meta_mean_motion_dot": 0.00013586,
        "meta_mean_motion_ddot": 0,
        "tle_line1": "1 34482U 93036UB  25343.12448208  .00013586  00000+0  22792-2 0  9994",
        "tle_line2": "2 34482  74.0366 230.5914 0045306 291.2458 219.3701 14.69058850881345"
      },
      "geometry": {
        "type": "Point",
        "coordinates": [
          -131.02975520149812,
          2.431702925820607
        ]
      }
    },
    {
      "type": "Feature",
      "properties": {
        "norad_id": 34544,
        "name": "COSMOS 2251 DEB",
        "group": "cosmos-2251-debris",
        "lat": 20.137950932427103,
        "lon": 21.871093259130593,
        "alt_km": 984.5592523463483,
        "timestamp": "2025-12-10T07:43:55.173736+00:00",
        "meta_object_name": "COSMOS 2251 DEB",
        "meta_object_id": "1993-036UE",
        "meta_epoch": "2025-12-08T02:32:15.563616",
        "meta_mean_motion": 13.54658928,
        "meta_eccentricity": 0.03844146,
        "meta_inclination": 73.9149,
        "meta_ra_of_asc_node": 211.5315,
        "meta_arg_of_pericenter": 240.8263,
        "meta_mean_anomaly": 277.3195,
        "meta_ephemeris_type": 0,
        "meta_classification_type": "U",
        "meta_norad_cat_id": 34544,
        "meta_element_set_no": 999,
        "meta_rev_at_epoch": 82819,
        "meta_bstar": 0.00035904708,
        "meta_mean_motion_dot": 3.7e-06,
        "meta_mean_motion_ddot": 0,
        "tle_line1": "1 34544U 93036UE  25342.10573569  .00000370  00000+0  35905-3 0  9997",
        "tle_line2": "2 34544  73.9149 211.5315 0384414 240.8263 277.3195 13.54658928828195"
      },
      "geometry": {
        "type": "Point",
        "coordinates": [
          21.871093259130593,
          20.137950932427103
        ]
      }
    },
    {
      "type": "Feature",
      "properties": {
        "norad_id": 34546,
        "name": "COSMOS 2251 DEB",
        "group": "cosmos-2251-debris",
        "lat": 41.58914808350003,
        "lon": -91.5837598262857,
        "alt_km": 733.2694810503308,
        "timestamp": "2025-12-10T07:43:55.173746+00:00",
        "meta_object_name": "COSMOS 2251 DEB",
        "meta_object_id": "1993-036UG",
        "meta_epoch": "2025-12-09T12:25:15.004992",
        "meta_mean_motion": 14.45389745,
        "meta_eccentricity": 0.0021869,
        "meta_inclination": 74.0312,
        "meta_ra_of_asc_node": 255.1938,
        "meta_arg_of_pericenter": 329.2624,
        "meta_mean_anomaly": 209.105,
        "meta_ephemeris_type": 0,
        "meta_classification_type": "U",
        "meta_norad_cat_id": 34546,
        "meta_element_set_no": 999,
        "meta_rev_at_epoch": 87979,
        "meta_bstar": 0.0011371883,
        "meta_mean_motion_dot": 3.987e-05,
        "meta_mean_motion_ddot": 0,
        "tle_line1": "1 34546U 93036UG  25343.51753478  .00003987  00000+0  11372-2 0  9992",
        "tle_line2": "2 34546  74.0312 255.1938 0021869 329.2624 209.1050 14.45389745879795"
      },
      "geometry": {
        "type": "Point",
        "coordinates": [
          -91.5837598262857,
          41.58914808350003
        ]
      }
    },
    {
      "type": "Feature",
      "properties": {
        "norad_id": 34547,
        "name": "COSMOS 2251 DEB",
        "group": "cosmos-2251-debris",
        "lat": -1.751275206990087,
        "lon": 104.92890347603833,
        "alt_km": 669.2406935735271,
        "timestamp": "2025-12-10T07:43:55.173756+00:00",
        "meta_object_name": "COSMOS 2251 DEB",
        "meta_object_id": "1993-036UH",
        "meta_epoch": "2025-12-09T18:41:36.261024",
        "meta_mean_motion": 14.72220503,
        "meta_eccentricity": 0.0017825,
        "meta_inclination": 74.0304,
        "meta_ra_of_asc_node": 106.4875,
        "meta_arg_of_pericenter": 186.4351,
        "meta_mean_anomaly": 173.6595,
        "meta_ephemeris_type": 0,
        "meta_classification_type": "U",
        "meta_norad_cat_id": 34547,
        "meta_element_set_no": 999,
        "meta_rev_at_epoch": 88478,
        "meta_bstar": 0.0032348,
        "meta_mean_motion_dot": 0.00020492,
        "meta_mean_motion_ddot": 0,
        "tle_line1": "1 34547U 93036UH  25343.77889191  .00020492  00000+0  32348-2 0  9999",
        "tle_line2": "2 34547  74.0304 106.4875 0017825 186.4351 173.6595 14.72220503884782"
      },
      "geometry": {
        "type": "Point",
        "coordinates": [
          104.92890347603833,
          -1.751275206990087
        ]
      }
    },
    {
      "type": "Feature",
      "properties": {
        "norad_id": 34553,
        "name": "COSMOS 2251 DEB",
        "group": "cosmos-2251-debris",
        "lat": 20.816812428773172,
        "lon": -157.25651764489592,
        "alt_km": 704.4376546095036,
        "timestamp": "2025-12-10T07:43:55.173766+00:00",
        "meta_object_name": "COSMOS 2251 DEB",
        "meta_object_id": "1993-036UP",
        "meta_epoch": "2025-12-09T17:19:08.494176",
        "meta_mean_motion": 14.57677841,
        "meta_eccentricity": 0.0019449,
        "meta_inclination": 74.0244,
        "meta_ra_of_asc_node": 197.6326,
        "meta_arg_of_pericenter": 275.2308,
        "meta_mean_anomaly": 196.2198,
        "meta_ephemeris_type": 0,
        "meta_classification_type": "U",
        "meta_norad_cat_id": 34553,
        "meta_element_set_no": 999,
        "meta_rev_at_epoch": 88052,
        "meta_bstar": 0.001603,
        "meta_mean_motion_dot": 7.311e-05,
        "meta_mean_motion_ddot": 0,
        "tle_line1": "1 34553U 93036UP  25343.72162609  .00007311  00000+0  16030-2 0  9994",
        "tle_line2": "2 34553  74.0244 197.6326 0019449 275.2308 196.2198 14.57677841880520"
      },
      "geometry": {
        "type": "Point",
        "coordinates": [
          -157.25651764489592,
          20.816812428773172
        ]
      }
    }
  ]
}